{
  "links" : {
    "next" : "https://api.nasa.gov/neo/rest/v1/neo/browse?page=19&size=20&api_key=jqAGvNAwUIBu4fl9FSOjdm3V4F7hIglRzI6pdX9d",
    "prev" : "https://api.nasa.gov/neo/rest/v1/neo/browse?page=17&size=20&api_key=jqAGvNAwUIBu4fl9FSOjdm3V4F7hIglRzI6pdX9d",
    "self" : "https://api.nasa.gov/neo/rest/v1/neo/browse?page=18&size=20&api_key=jqAGvNAwUIBu4fl9FSOjdm3V4F7hIglRzI6pdX9d"
  },
  "page" : {
    "size" : 20,
    "total_elements" : 20750,
    "total_pages" : 1038,
    "number" : 18
  },
  "near_earth_objects" : [ {
    "links" : {
      "self" : "https://api.nasa.gov/neo/rest/v1/neo/3265791?api_key=jqAGvNAwUIBu4fl9FSOjdm3V4F7hIglRzI6pdX9d"
    },
    "neo_reference_id" : "3265791",
    "name" : "(2005 AO19)",
    "designation" : "2005 AO19",
    "nasa_jpl_url" : "http://ssd.jpl.nasa.gov/sbdb.cgi?sstr=3265791",
    "absolute_magnitude_h" : 24.2,
    "estimated_diameter" : {
      "kilometers" : {
        "estimated_diameter_min" : 0.0384197891,
        "estimated_diameter_max" : 0.0859092601
      },
      "meters" : {
        "estimated_diameter_min" : 38.4197891064,
        "estimated_diameter_max" : 85.9092601232
      },
      "miles" : {
        "estimated_diameter_min" : 0.0238729428,
        "estimated_diameter_max" : 0.0533815229
      },
      "feet" : {
        "estimated_diameter_min" : 126.0491808919,
        "estimated_diameter_max" : 281.8545369825
      }
    },
    "is_potentially_hazardous_asteroid" : false,
    "close_approach_data" : [ {
      "close_approach_date" : "2005-01-07",
      "epoch_date_close_approach" : 1105084800000,
      "relative_velocity" : {
        "kilometers_per_second" : "3.0642960667",
        "kilometers_per_hour" : "11031.4658399432",
        "miles_per_hour" : "6854.5238714914"
      },
      "miss_distance" : {
        "astronomical" : "0.1267484678",
        "lunar" : "49.3051567078",
        "kilometers" : "18961302",
        "miles" : "11782007"
      },
      "orbiting_body" : "Earth"
    } ],
    "orbital_data" : {
      "orbit_id" : "8",
      "orbit_determination_date" : "2017-04-06 09:11:36",
      "first_observation_date" : "2005-01-13",
      "last_observation_date" : "2005-01-16",
      "data_arc_in_days" : 3,
      "observations_used" : 27,
      "orbit_uncertainty" : "9",
      "minimum_orbit_intersection" : ".12397",
      "jupiter_tisserand_invariant" : "4.163",
      "epoch_osculation" : "2453384.5",
      "eccentricity" : ".3412987112531148",
      "semi_major_axis" : "1.680828523846938",
      "inclination" : "3.185515582492222",
      "ascending_node_longitude" : "113.5675535820326",
      "orbital_period" : "795.9458837116292",
      "perihelion_distance" : "1.107163914820503",
      "perihelion_argument" : "352.5613423106399",
      "aphelion_distance" : "2.254493132873374",
      "perihelion_time" : "2453375.455837638015",
      "mean_anomaly" : "4.090602787128942",
      "mean_motion" : ".4522920557378343",
      "equinox" : "J2000",
      "orbit_class" : {
        "orbit_class_type" : "AMO",
        "orbit_class_range" : "1.017 AU < q (perihelion) < 1.3 AU",
        "orbit_class_description" : "Near-Earth asteroid orbits similar to that of 1221 Amor"
      }
    },
    "is_sentry_object" : false
  }, {
    "links" : {
      "self" : "https://api.nasa.gov/neo/rest/v1/neo/3265792?api_key=jqAGvNAwUIBu4fl9FSOjdm3V4F7hIglRzI6pdX9d"
    },
    "neo_reference_id" : "3265792",
    "name" : "(2005 AQ19)",
    "designation" : "2005 AQ19",
    "nasa_jpl_url" : "http://ssd.jpl.nasa.gov/sbdb.cgi?sstr=3265792",
    "absolute_magnitude_h" : 21.4,
    "estimated_diameter" : {
      "kilometers" : {
        "estimated_diameter_min" : 0.1394938229,
        "estimated_diameter_max" : 0.3119176705
      },
      "meters" : {
        "estimated_diameter_min" : 139.4938229344,
        "estimated_diameter_max" : 311.9176705226
      },
      "miles" : {
        "estimated_diameter_min" : 0.0866774163,
        "estimated_diameter_max" : 0.1938165949
      },
      "feet" : {
        "estimated_diameter_min" : 457.6569140361,
        "estimated_diameter_max" : 1023.3519701574
      }
    },
    "is_potentially_hazardous_asteroid" : false,
    "close_approach_data" : [ {
      "close_approach_date" : "2005-01-21",
      "epoch_date_close_approach" : 1106294400000,
      "relative_velocity" : {
        "kilometers_per_second" : "8.6159985777",
        "kilometers_per_hour" : "31017.5948797727",
        "miles_per_hour" : "19273.1272184899"
      },
      "miss_distance" : {
        "astronomical" : "0.2951188428",
        "lunar" : "114.8012313843",
        "kilometers" : "44149152",
        "miles" : "27433010"
      },
      "orbiting_body" : "Earth"
    } ],
    "orbital_data" : {
      "orbit_id" : "9",
      "orbit_determination_date" : "2017-04-06 09:11:36",
      "first_observation_date" : "2005-01-13",
      "last_observation_date" : "2005-02-05",
      "data_arc_in_days" : 23,
      "observations_used" : 26,
      "orbit_uncertainty" : "7",
      "minimum_orbit_intersection" : ".261531",
      "jupiter_tisserand_invariant" : "4.056",
      "epoch_osculation" : "2458600.5",
      "eccentricity" : ".2910995231290356",
      "semi_major_axis" : "1.736491381920862",
      "inclination" : "16.47763053174499",
      "ascending_node_longitude" : "123.9606451398441",
      "orbital_period" : "835.8096388843824",
      "perihelion_distance" : "1.230999568726019",
      "perihelion_argument" : "336.1800767373514",
      "aphelion_distance" : "2.241983195115704",
      "perihelion_time" : "2458373.425247649407",
      "mean_anomaly" : "97.80565698587424",
      "mean_motion" : ".4307200865504721",
      "equinox" : "J2000",
      "orbit_class" : {
        "orbit_class_type" : "AMO",
        "orbit_class_range" : "1.017 AU < q (perihelion) < 1.3 AU",
        "orbit_class_description" : "Near-Earth asteroid orbits similar to that of 1221 Amor"
      }
    },
    "is_sentry_object" : false
  }, {
    "links" : {
      "self" : "https://api.nasa.gov/neo/rest/v1/neo/3265904?api_key=jqAGvNAwUIBu4fl9FSOjdm3V4F7hIglRzI6pdX9d"
    },
    "neo_reference_id" : "3265904",
    "name" : "(2005 AX28)",
    "designation" : "2005 AX28",
    "nasa_jpl_url" : "http://ssd.jpl.nasa.gov/sbdb.cgi?sstr=3265904",
    "absolute_magnitude_h" : 25.2,
    "estimated_diameter" : {
      "kilometers" : {
        "estimated_diameter_min" : 0.0242412481,
        "estimated_diameter_max" : 0.0542050786
      },
      "meters" : {
        "estimated_diameter_min" : 24.2412481101,
        "estimated_diameter_max" : 54.2050786336
      },
      "miles" : {
        "estimated_diameter_min" : 0.0150628086,
        "estimated_diameter_max" : 0.0336814639
      },
      "feet" : {
        "estimated_diameter_min" : 79.5316564495,
        "estimated_diameter_max" : 177.8381901842
      }
    },
    "is_potentially_hazardous_asteroid" : false,
    "close_approach_data" : [ {
      "close_approach_date" : "2005-01-19",
      "epoch_date_close_approach" : 1106121600000,
      "relative_velocity" : {
        "kilometers_per_second" : "17.0251751945",
        "kilometers_per_hour" : "61290.6307001406",
        "miles_per_hour" : "38083.6143925401"
      },
      "miss_distance" : {
        "astronomical" : "0.0140901655",
        "lunar" : "5.4810743332",
        "kilometers" : "2107858.75",
        "miles" : "1309762.75"
      },
      "orbiting_body" : "Earth"
    } ],
    "orbital_data" : {
      "orbit_id" : "8",
      "orbit_determination_date" : "2017-04-06 09:11:35",
      "first_observation_date" : "2005-01-15",
      "last_observation_date" : "2005-01-18",
      "data_arc_in_days" : 3,
      "observations_used" : 24,
      "orbit_uncertainty" : "8",
      "minimum_orbit_intersection" : ".0115867",
      "jupiter_tisserand_invariant" : "3.376",
      "epoch_osculation" : "2453387.5",
      "eccentricity" : ".6554825937919165",
      "semi_major_axis" : "2.157492654074585",
      "inclination" : "7.577496489207785",
      "ascending_node_longitude" : "113.5342877031578",
      "orbital_period" : "1157.503773208967",
      "perihelion_distance" : ".7432937730947698",
      "perihelion_argument" : "72.81272493834524",
      "aphelion_distance" : "3.5716915350544",
      "perihelion_time" : "2453431.445330576526",
      "mean_anomaly" : "346.3323823440416",
      "mean_motion" : ".3110141049492789",
      "equinox" : "J2000",
      "orbit_class" : {
        "orbit_class_type" : "APO",
        "orbit_class_range" : "a (semi-major axis) > 1.0 AU; q (perihelion) < 1.017 AU",
        "orbit_class_description" : "Near-Earth asteroid orbits which cross the Earth’s orbit similar to that of 1862 Apollo"
      }
    },
    "is_sentry_object" : false
  } ]
}